NORAD_CAT_ID,OBJECT_NAME,OBJECT_TYPE,EPOCH,MEAN_MOTION,ECCENTRICITY,INCLINATION,RA_OF_ASC_NODE,ARG_OF_PERICENTER,MEAN_ANOMALY,BSTAR,MEAN_MOTION_DOT,MEAN_MOTION_DDOT,TLE_LINE0,TLE_LINE1,TLE_LINE2,SEMIMAJOR_AXIS,PERIOD,APOGEE,PERIGEE,DECAYED
49751.0,STARLINK-3229,PAYLOAD,2023-04-22 14:55:25,15.08868168,0.0001326,53.2149,192.007,67.4719,292.6414,0.0011408,0.00017928,0.0,0 STARLINK-3229,1 49751U 21115AD  23112.62181933  .00017928  00000-0  11408-2 0  9991,2 49751  53.2149 192.0070 0001326  67.4719 292.6414 15.08868168 76717,6917.794,95.436,540.577,538.742,0.0
49751.0,STARLINK-3229,PAYLOAD,2023-04-22 22:52:20,15.08849944,0.0001443,53.2147,190.521,65.6992,294.4151,0.00036638,5.549e-05,0.0,0 STARLINK-3229,1 49751U 21115AD  23112.95302082  .00005549  00000-0  36638-3 0  9996,2 49751  53.2147 190.5210 0001443  65.6992 294.4151 15.08849944 77874,6917.85,95.437,540.713,538.717,0.0
49751.0,STARLINK-3229,PAYLOAD,2023-04-23 16:21:35,15.08844646,0.0001124,53.2147,187.2489,87.4865,272.6256,0.00059076,9.128e-05,0.0,0 STARLINK-3229,1 49751U 21115AD  23113.68166451  .00009128  00000-0  59076-3 0  9993,2 49751  53.2147 187.2489 0001124  87.4865 272.6256 15.08844646 76879,6917.866,95.437,540.509,538.954,0.0
49751.0,STARLINK-3229,PAYLOAD,2023-04-24 05:04:40,15.08904378,0.0001367,53.2149,184.8691,87.2579,272.857,0.0034857,0.00055724,0.0,0 STARLINK-3229,1 49751U 21115AD  23114.21157989  .00055724  00000-0  34857-2 0  9991,2 49751  53.2149 184.8691 0001367  87.2579 272.8570 15.08904378 78061,6917.684,95.433,540.494,538.603,0.0
49751.0,STARLINK-3229,PAYLOAD,2023-04-24 16:12:20,15.08947656,0.000149,53.2156,182.7864,87.3356,272.7807,0.0039486,0.00063305,0.0,0 STARLINK-3229,1 49751U 21115AD  23114.67523941  .00063305  00000-0  39486-2 0  9993,2 49751  53.2156 182.7864 0001490  87.3356 272.7807 15.08947656 78135,6917.551,95.431,540.447,538.386,0.0
49751.0,STARLINK-3229,PAYLOAD,2023-04-24 20:58:30,15.08844003,0.0001393,53.2155,181.8972,94.4378,265.6773,-0.0019335,-0.00030931,0.0,0 STARLINK-3229,1 49751U 21115AD  23114.87396792 -.00030931  00000-0 -19335-2 0  9999,2 49751  53.2155 181.8972 0001393  94.4378 265.6773 15.08844003 78167,6917.868,95.437,540.697,538.769,0.0
49751.0,STARLINK-3229,PAYLOAD,2023-04-25 11:17:00,15.08800794,0.0001316,53.216,179.218,106.1921,253.9216,0.00079756,0.00012414,0.0,0 STARLINK-3229,1 49751U 21115AD  23115.47014360  .00012414  00000-0  79756-3 0  9992,2 49751  53.2160 179.2180 0001316 106.1921 253.9216 15.08800794 77143,6918.0,95.44,540.776,538.955,0.0
49751.0,STARLINK-3229,PAYLOAD,2023-04-26 11:07:48,15.08831369,0.0001219,53.2152,174.7594,109.3126,250.7998,0.00090889,0.00014203,0.0,0 STARLINK-3229,1 49751U 21115AD  23116.46375701  .00014203  00000-0  90889-3 0  9999,2 49751  53.2152 174.7594 0001219 109.3126 250.7998 15.08831369 77297,6917.907,95.438,540.615,538.928,0.0
49751.0,STARLINK-3229,PAYLOAD,2023-04-26 20:40:07,15.08843095,0.0001187,53.215,172.975,110.022,250.09,0.0009463,0.00014806,0.0,0 STARLINK-3229,1 49751U 21115AD  23116.86119739  .00014806  00000-0  94630-3 0  9997,2 49751  53.2150 172.9750 0001187 110.0220 250.0900 15.08843095 77359,6917.871,95.437,540.557,538.915,0.0
49751.0,STARLINK-3229,PAYLOAD,2023-04-27 10:58:35,15.08860151,0.0001171,53.2148,170.2983,109.557,250.5548,0.00094008,0.00014713,0.0,0 STARLINK-3229,1 49751U 21115AD  23117.45735235  .00014713  00000-0  94008-3 0  9994,2 49751  53.2148 170.2983 0001171 109.5570 250.5548 15.08860151 77444,6917.819,95.436,540.494,538.874,0.0
49751.0,STARLINK-3229,PAYLOAD,2023-04-27 15:44:44,15.08866478,0.000117,53.2147,169.406,109.1542,250.9577,0.00095206,0.00014907,0.0,0 STARLINK-3229,1 49751U 21115AD  23117.65606904  .00014907  00000-0  95206-3 0  9992,2 49751  53.2147 169.4060 0001170 109.1542 250.9577 15.08866478 78583,6917.799,95.436,540.474,538.855,0.0
49751.0,STARLINK-3229,PAYLOAD,2023-04-28 02:52:26,15.08858188,0.0001243,53.2145,167.3252,101.1093,259.0038,0.00051781,7.967e-05,0.0,0 STARLINK-3229,1 49751U 21115AD  23118.11974809  .00007967  00000-0  51781-3 0  9994,2 49751  53.2145 167.3252 0001243 101.1093 259.0038 15.08858188 78654,6917.825,95.436,540.55,538.83,0.0
49751.0,STARLINK-3229,PAYLOAD,2023-04-28 10:49:21,15.08856574,0.0001094,53.2149,165.8382,105.9105,254.2007,0.00035302,5.337e-05,0.0,0 STARLINK-3229,1 49751U 21115AD  23118.45094566  .00005337  00000-0  35302-3 0  9994,2 49751  53.2149 165.8382 0001094 105.9105 254.2007 15.08856574 77597,6917.83,95.437,540.452,538.938,0.0
49751.0,STARLINK-3229,PAYLOAD,2023-04-28 15:35:30,15.08859034,0.0001077,53.2146,164.9462,93.7901,266.3214,0.00059236,9.157e-05,0.0,0 STARLINK-3229,1 49751U 21115AD  23118.64966408  .00009157  00000-0  59236-3 0  9994,2 49751  53.2146 164.9462 0001077  93.7901 266.3214 15.08859034 78737,6917.822,95.436,540.432,538.942,0.0
49751.0,STARLINK-3229,PAYLOAD,2023-04-29 09:04:45,15.08846576,0.0002215,53.2166,161.6722,141.947,218.1679,0.00037654,5.711e-05,0.0,0 STARLINK-3229,1 49751U 21115AD  23119.37830310  .00005711  00000-0  37654-3 0  9999,2 49751  53.2166 161.6722 0002215 141.9470 218.1679 15.08846576 77730,6917.86,95.437,541.258,538.193,0.0
49751.0,STARLINK-3229,PAYLOAD,2023-04-30 08:55:33,15.08837665,0.0001289,53.2155,157.2156,86.1788,273.9352,8.3854e-05,1.047e-05,0.0,0 STARLINK-3229,1 49751U 21115AD  23120.37191158  .00001047  00000-0  83854-4 0  9993,2 49751  53.2155 157.2156 0001289  86.1788 273.9352 15.08837665 77884,6917.888,95.438,540.644,538.861,0.0
49751.0,STARLINK-3229,PAYLOAD,2023-04-30 13:41:42,15.08840109,0.0001302,53.2147,156.3237,76.2668,283.8469,0.00013846,1.916e-05,0.0,0 STARLINK-3229,1 49751U 21115AD  23120.57063184  .00001916  00000-0  13846-3 0  9990,2 49751  53.2147 156.3237 0001302  76.2668 283.8469 15.08840109 79022,6917.88,95.438,540.646,538.844,0.0
49751.0,STARLINK-3229,PAYLOAD,2023-05-01 11:57:06,15.08841576,0.0001289,53.2151,152.1604,82.0437,278.0701,0.00014442,2.011e-05,0.0,0 STARLINK-3229,1 49751U 21115AD  23121.49799210  .00002011  00000-0  14442-3 0  9998,2 49751  53.2151 152.1604 0001289  82.0437 278.0701 15.08841576 78058,6917.876,95.437,540.632,538.849,0.0
49751.0,STARLINK-3229,PAYLOAD,2023-05-02 07:01:44,15.08842211,0.0001259,53.2154,148.5911,85.8554,274.2582,0.00013464,1.856e-05,0.0,0 STARLINK-3229,1 49751U 21115AD  23122.29287166  .00001856  00000-0  13464-3 0  9998,2 49751  53.2154 148.5911 0001259  85.8554 274.2582 15.08842211 79287,6917.874,95.437,540.61,538.868,0.0
49751.0,STARLINK-3229,PAYLOAD,2023-05-02 11:47:53,15.08845015,0.0001235,53.2161,147.6991,86.1072,274.0061,0.00014844,2.076e-05,0.0,0 STARLINK-3229,1 49751U 21115AD  23122.49158855  .00002076  00000-0  14844-3 0  9990,2 49751  53.2161 147.6991 0001235  86.1072 274.0061 15.08845015 78202,6917.865,95.437,540.584,538.876,0.0
49751.0,STARLINK-3229,PAYLOAD,2023-05-03 05:17:08,15.08836735,0.0001379,53.2164,144.4298,90.4727,269.6423,-4.4259e-06,-3.58e-06,0.0,0 STARLINK-3229,1 49751U 21115AD  23123.22023395 -.00000358  00000-0 -44259-5 0  9990,2 49751  53.2164 144.4298 0001379  90.4727 269.6423 15.08836735 79420,6917.89,95.438,540.709,538.801,0.0
49751.0,STARLINK-3229,PAYLOAD,2023-05-03 11:38:40,15.08839389,0.0001252,53.2165,143.2388,89.7609,270.3527,4.6359e-05,4.5e-06,0.0,0 STARLINK-3229,1 49751U 21115AD  23123.48519437  .00000450  00000-0  46359-4 0  9998,2 49751  53.2165 143.2388 0001252  89.7609 270.3527 15.08839389 78351,6917.882,95.438,540.613,538.881,0.0
49751.0,STARLINK-3229,PAYLOAD,2023-05-04 08:18:41,15.08840282,0.0001149,53.2157,139.3721,86.4416,273.6708,3.7973e-05,3.17e-06,0.0,0 STARLINK-3229,1 49751U 21115AD  23124.34631449  .00000317  00000-0  37973-4 0  9996,2 49751  53.2157 139.3721 0001149  86.4416 273.6708 15.08840282 79592,6917.88,95.438,540.539,538.95,0.0
49751.0,STARLINK-3229,PAYLOAD,2023-05-05 09:44:51,15.08839782,0.000113,53.2157,134.6144,89.6282,270.4839,7.2926e-05,8.73e-06,0.0,0 STARLINK-3229,1 49751U 21115AD  23125.40615585  .00000873  00000-0  72926-4 0  9991,2 49751  53.2157 134.6144 0001130  89.6282 270.4839 15.08839782 79756,6917.881,95.438,540.528,538.964,0.0
49751.0,STARLINK-3229,PAYLOAD,2023-05-05 17:41:47,15.08839099,0.000113,53.2157,133.1275,90.523,269.5892,6.5755e-05,7.59e-06,0.0,0 STARLINK-3229,1 49751U 21115AD  23125.73735679  .00000759  00000-0  65755-4 0  9999,2 49751  53.2157 133.1275 0001130  90.5230 269.5892 15.08839099 78690,6917.883,95.438,540.53,538.966,0.0
49751.0,STARLINK-3229,PAYLOAD,2023-05-06 09:35:38,15.0884494,0.0001171,53.2156,130.1535,89.933,270.1796,0.00011912,1.609e-05,0.0,0 STARLINK-3229,1 49751U 21115AD  23126.39975335  .00001609  00000-0  11912-3 0  9997,2 49751  53.2156 130.1535 0001171  89.9330 270.1796 15.08844940 78796,6917.865,95.437,540.54,538.92,0.0
49751.0,STARLINK-3229,PAYLOAD,2023-05-06 23:54:07,15.08842371,0.000121,53.2151,127.476,90.7865,269.3266,7.7617e-05,9.48e-06,0.0,0 STARLINK-3229,1 49751U 21115AD  23126.99591568  .00000948  00000-0  77617-4 0  9995,2 49751  53.2151 127.4760 0001210  90.7865 269.3266 15.08842371 79998,6917.873,95.437,540.575,538.901,0.0
49751.0,STARLINK-3229,PAYLOAD,2023-05-07 06:15:39,15.08843564,0.0001206,53.2154,126.2866,90.4261,269.6869,8.1554e-05,1.01e-05,0.0,0 STARLINK-3229,1 49751U 21115AD  23127.26087475  .00001010  00000-0  81554-4 0  9999,2 49751  53.2154 126.2866 0001206  90.4261 269.6869 15.08843564 78926,6917.869,95.437,540.569,538.9,0.0
49751.0,STARLINK-3229,PAYLOAD,2023-05-07 17:23:21,15.08840207,0.0001192,53.2153,124.2049,90.2677,269.8452,4.8662e-05,4.87e-06,0.0,0 STARLINK-3229,1 49751U 21115AD  23127.72455729  .00000487  00000-0  48662-4 0  9991,2 49751  53.2153 124.2049 0001192  90.2677 269.8452 15.08840207 78997,6917.88,95.438,540.569,538.92,0.0
49751.0,STARLINK-3229,PAYLOAD,2023-05-08 04:31:03,15.08840389,0.0001199,53.2154,122.1233,89.9173,270.1956,3.0469e-05,1.97e-06,0.0,0 STARLINK-3229,1 49751U 21115AD  23128.18823739  .00000197  00000-0  30469-4 0  9996,2 49751  53.2154 122.1233 0001199  89.9173 270.1956 15.08840389 80171,6917.879,95.438,540.574,538.915,0.0
